[{"OBJECT_NAME":"LUCH 5V (SDCM/PRN 141)","OBJECT_ID":"2014-023A","EPOCH":"2026-04-27T11:22:48.713088","MEAN_MOTION":1.00271727,"ECCENTRICITY":0.0002294,"INCLINATION":5.0108,"RA_OF_ASC_NODE":70.2422,"ARG_OF_PERICENTER":339.6697,"MEAN_ANOMALY":71.0176,"EPHEMERIS_TYPE":0,"CLASSIFICATION_TYPE":"U","NORAD_CAT_ID":39727,"ELEMENT_SET_NO":999,"REV_AT_EPOCH":4385,"BSTAR":0,"MEAN_MOTION_DOT":-2.74e-6,"MEAN_MOTION_DDOT":0},{"OBJECT_NAME":"GPS BIIF-6  (PRN 06)","OBJECT_ID":"2014-026A","EPOCH":"2026-04-27T02:32:44.421216","MEAN_MOTION":2.00564781,"ECCENTRICITY":0.0038926,"INCLINATION":56.5216,"RA_OF_ASC_NODE":333.5063,"ARG_OF_PERICENTER":326.6984,"MEAN_ANOMALY":33.095,"EPHEMERIS_TYPE":0,"CLASSIFICATION_TYPE":"U","NORAD_CAT_ID":39741,"ELEMENT_SET_NO":999,"REV_AT_EPOCH":8751,"BSTAR":0,"MEAN_MOTION_DOT":-7.9e-7,"MEAN_MOTION_DDOT":0},{"OBJECT_NAME":"COSMOS 2500 (755)","OBJECT_ID":"2014-032A","EPOCH":"2026-04-26T21:21:44.631360","MEAN_MOTION":2.13105827,"ECCENTRICITY":0.00057442,"INCLINATION":65.2618,"RA_OF_ASC_NODE":315.4308,"ARG_OF_PERICENTER":181.8754,"MEAN_ANOMALY":178.1502,"EPHEMERIS_TYPE":0,"CLASSIFICATION_TYPE":"U","NORAD_CAT_ID":40001,"ELEMENT_SET_NO":999,"REV_AT_EPOCH":9236,"BSTAR":0,"MEAN_MOTION_DOT":-2.9e-7,"MEAN_MOTION_DDOT":0},{"OBJECT_NAME":"GPS BIIF-7  (PRN 09)","OBJECT_ID":"2014-045A","EPOCH":"2026-04-27T04:43:05.179008","MEAN_MOTION":2.00555017,"ECCENTRICITY":0.0031683,"INCLINATION":55.3206,"RA_OF_ASC_NODE":90.4949,"ARG_OF_PERICENTER":119.1157,"MEAN_ANOMALY":241.1868,"EPHEMERIS_TYPE":0,"CLASSIFICATION_TYPE":"U","NORAD_CAT_ID":40105,"ELEMENT_SET_NO":999,"REV_AT_EPOCH":8505,"BSTAR":0,"MEAN_MOTION_DOT":2.4e-7,"MEAN_MOTION_DDOT":0},{"OBJECT_NAME":"GSAT0201 (GALILEO 5)","OBJECT_ID":"2014-050A","EPOCH":"2026-04-26T03:14:49.472448","MEAN_MOTION":1.85519973,"ECCENTRICITY":0.16663331,"INCLINATION":48.9332,"RA_OF_ASC_NODE":275.567,"ARG_OF_PERICENTER":177.3572,"MEAN_ANOMALY":183.6448,"EPHEMERIS_TYPE":0,"CLASSIFICATION_TYPE":"U","NORAD_CAT_ID":40128,"ELEMENT_SET_NO":999,"REV_AT_EPOCH":7735,"BSTAR":0,"MEAN_MOTION_DOT":-6.4e-7,"MEAN_MOTION_DDOT":0},{"OBJECT_NAME":"GSAT0202 (GALILEO 6)","OBJECT_ID":"2014-050B","EPOCH":"2026-04-26T22:19:11.663040","MEAN_MOTION":1.85520667,"ECCENTRICITY":0.166755,"INCLINATION":48.9494,"RA_OF_ASC_NODE":274.6194,"ARG_OF_PERICENTER":178.1198,"MEAN_ANOMALY":182.5912,"EPHEMERIS_TYPE":0,"CLASSIFICATION_TYPE":"U","NORAD_CAT_ID":40129,"ELEMENT_SET_NO":999,"REV_AT_EPOCH":7953,"BSTAR":0,"MEAN_MOTION_DOT":-7.3e-7,"MEAN_MOTION_DDOT":0},{"OBJECT_NAME":"IRNSS-1C","OBJECT_ID":"2014-061A","EPOCH":"2026-04-27T00:13:40.908000","MEAN_MOTION":1.00269611,"ECCENTRICITY":0.00215748,"INCLINATION":6.3873,"RA_OF_ASC_NODE":89.9018,"ARG_OF_PERICENTER":357.9703,"MEAN_ANOMALY":213.5568,"EPHEMERIS_TYPE":0,"CLASSIFICATION_TYPE":"U","NORAD_CAT_ID":40269,"ELEMENT_SET_NO":999,"REV_AT_EPOCH":4217,"BSTAR":0,"MEAN_MOTION_DOT":-1.66e-6,"MEAN_MOTION_DDOT":0},{"OBJECT_NAME":"GPS BIIF-8  (PRN 03)","OBJECT_ID":"2014-068A","EPOCH":"2026-04-27T01:41:33.804096","MEAN_MOTION":2.00573025,"ECCENTRICITY":0.00652938,"INCLINATION":56.9545,"RA_OF_ASC_NODE":32.9243,"ARG_OF_PERICENTER":68.8787,"MEAN_ANOMALY":291.8193,"EPHEMERIS_TYPE":0,"CLASSIFICATION_TYPE":"U","NORAD_CAT_ID":40294,"ELEMENT_SET_NO":999,"REV_AT_EPOCH":8418,"BSTAR":0,"MEAN_MOTION_DOT":-1.03e-6,"MEAN_MOTION_DDOT":0},{"OBJECT_NAME":"COSMOS 2501 (702K)","OBJECT_ID":"2014-075A","EPOCH":"2026-04-27T03:38:06.019584","MEAN_MOTION":2.131013,"ECCENTRICITY":0.00218671,"INCLINATION":63.614,"RA_OF_ASC_NODE":192.1381,"ARG_OF_PERICENTER":210.0421,"MEAN_ANOMALY":149.8851,"EPHEMERIS_TYPE":0,"CLASSIFICATION_TYPE":"U","NORAD_CAT_ID":40315,"ELEMENT_SET_NO":999,"REV_AT_EPOCH":8876,"BSTAR":0,"MEAN_MOTION_DOT":-1.0e-8,"MEAN_MOTION_DDOT":0},{"OBJECT_NAME":"GPS BIIF-9  (PRN 26)","OBJECT_ID":"2015-013A","EPOCH":"2026-04-26T16:57:16.988832","MEAN_MOTION":2.00554396,"ECCENTRICITY":0.01088827,"INCLINATION":53.1742,"RA_OF_ASC_NODE":206.3067,"ARG_OF_PERICENTER":39.9769,"MEAN_ANOMALY":320.8462,"EPHEMERIS_TYPE":0,"CLASSIFICATION_TYPE":"U","NORAD_CAT_ID":40534,"ELEMENT_SET_NO":999,"REV_AT_EPOCH":8079,"BSTAR":0,"MEAN_MOTION_DOT":-3.6e-7,"MEAN_MOTION_DDOT":0},{"OBJECT_NAME":"GSAT0203 (GALILEO 7)","OBJECT_ID":"2015-017A","EPOCH":"2026-04-27T04:19:21.542016","MEAN_MOTION":1.7047594,"ECCENTRICITY":0.0003398,"INCLINATION":56.8028,"RA_OF_ASC_NODE":342.9865,"ARG_OF_PERICENTER":299.9003,"MEAN_ANOMALY":60.1078,"EPHEMERIS_TYPE":0,"CLASSIFICATION_TYPE":"U","NORAD_CAT_ID":40544,"ELEMENT_SET_NO":999,"REV_AT_EPOCH":6833,"BSTAR":0,"MEAN_MOTION_DOT":-9.1e-7,"MEAN_MOTION_DDOT":0},{"OBJECT_NAME":"GSAT0204 (GALILEO 8)","OBJECT_ID":"2015-017B","EPOCH":"2026-04-25T02:08:52.340352","MEAN_MOTION":1.7047548,"ECCENTRICITY":0.00015528,"INCLINATION":56.8095,"RA_OF_ASC_NODE":343.0621,"ARG_OF_PERICENTER":296.0698,"MEAN_ANOMALY":63.9535,"EPHEMERIS_TYPE":0,"CLASSIFICATION_TYPE":"U","NORAD_CAT_ID":40545,"ELEMENT_SET_NO":999,"REV_AT_EPOCH":3134,"BSTAR":0,"MEAN_MOTION_DOT":-9.0e-7,"MEAN_MOTION_DDOT":0},{"OBJECT_NAME":"BEIDOU-3S IGSO-1S (C31)","OBJECT_ID":"2015-019A","EPOCH":"2026-04-22T23:45:28.549728","MEAN_MOTION":1.002611,"ECCENTRICITY":0.0037208,"INCLINATION":49.2998,"RA_OF_ASC_NODE":296.1212,"ARG_OF_PERICENTER":189.9963,"MEAN_ANOMALY":176.4804,"EPHEMERIS_TYPE":0,"CLASSIFICATION_TYPE":"U","NORAD_CAT_ID":40549,"ELEMENT_SET_NO":999,"REV_AT_EPOCH":4052,"BSTAR":0,"MEAN_MOTION_DOT":-1.71e-6,"MEAN_MOTION_DDOT":0},{"OBJECT_NAME":"GPS BIIF-10 (PRN 08)","OBJECT_ID":"2015-033A","EPOCH":"2026-04-27T08:44:55.548384","MEAN_MOTION":2.00558877,"ECCENTRICITY":0.0115011,"INCLINATION":54.0239,"RA_OF_ASC_NODE":269.1804,"ARG_OF_PERICENTER":29.9015,"MEAN_ANOMALY":330.7125,"EPHEMERIS_TYPE":0,"CLASSIFICATION_TYPE":"U","NORAD_CAT_ID":40730,"ELEMENT_SET_NO":999,"REV_AT_EPOCH":7897,"BSTAR":0,"MEAN_MOTION_DOT":-6.0e-7,"MEAN_MOTION_DDOT":0},{"OBJECT_NAME":"BEIDOU-3S M2S (C58)","OBJECT_ID":"2015-037A","EPOCH":"2026-04-26T18:37:42.854016","MEAN_MOTION":1.86231775,"ECCENTRICITY":0.00073855,"INCLINATION":54.9169,"RA_OF_ASC_NODE":303.8152,"ARG_OF_PERICENTER":270.7316,"MEAN_ANOMALY":89.183,"EPHEMERIS_TYPE":0,"CLASSIFICATION_TYPE":"U","NORAD_CAT_ID":40748,"ELEMENT_SET_NO":999,"REV_AT_EPOCH":7316,"BSTAR":0,"MEAN_MOTION_DOT":-5.9e-7,"MEAN_MOTION_DDOT":0},{"OBJECT_NAME":"BEIDOU-3S M1S (C57)","OBJECT_ID":"2015-037B","EPOCH":"2026-04-25T09:06:05.082336","MEAN_MOTION":1.86254812,"ECCENTRICITY":0.00044572,"INCLINATION":54.9149,"RA_OF_ASC_NODE":303.8513,"ARG_OF_PERICENTER":51.4305,"MEAN_ANOMALY":308.6107,"EPHEMERIS_TYPE":0,"CLASSIFICATION_TYPE":"U","NORAD_CAT_ID":40749,"ELEMENT_SET_NO":999,"REV_AT_EPOCH":7314,"BSTAR":0,"MEAN_MOTION_DOT":-4.9e-7,"MEAN_MOTION_DDOT":0},{"OBJECT_NAME":"GSAT0205 (GALILEO 9)","OBJECT_ID":"2015-045A","EPOCH":"2026-04-25T15:10:52.485888","MEAN_MOTION":1.67410754,"ECCENTRICITY":0.00051595,"INCLINATION":54.9613,"RA_OF_ASC_NODE":223.1764,"ARG_OF_PERICENTER":266.9978,"MEAN_ANOMALY":92.9342,"EPHEMERIS_TYPE":0,"CLASSIFICATION_TYPE":"U","NORAD_CAT_ID":40889,"ELEMENT_SET_NO":999,"REV_AT_EPOCH":6608,"BSTAR":0,"MEAN_MOTION_DOT":-3.8e-7,"MEAN_MOTION_DDOT":0}]
